[Satellite]
VERSION=1.1
NAME=STARLINK-1390
NICKNAME=STARLINK-1390
TLE1=1 45550U 20025V   20141.75001157  .03537001  00000-0  55071-1 0  9990
TLE2=2 45550  52.9995 262.2888 0003141  77.5638 350.3563 15.49866367  5095
STATUS=0
